CCSDS_OMM_VERS,COMMENT,CREATION_DATE,ORIGINATOR,OBJECT_NAME,OBJECT_ID,CENTER_NAME,REF_FRAME,TIME_SYSTEM,MEAN_ELEMENT_THEORY,EPOCH,MEAN_MOTION,ECCENTRICITY,INCLINATION,RA_OF_ASC_NODE,ARG_OF_PERICENTER,MEAN_ANOMALY,EPHEMERIS_TYPE,CLASSIFICATION_TYPE,NORAD_CAT_ID,ELEMENT_SET_NO,REV_AT_EPOCH,BSTAR,MEAN_MOTION_DOT,MEAN_MOTION_DDOT,SEMIMAJOR_AXIS,PERIOD,APOAPSIS,PERIAPSIS,OBJECT_TYPE,RCS_SIZE,COUNTRY_CODE,LAUNCH_DATE,SITE,DECAY_DATE,FILE,GP_ID,TLE_LINE0,TLE_LINE1,TLE_LINE2,NORAD_KEY,JCAT,DeepCat,Satcat,Piece,Active,Type,Name,LDate,Parent,Owner,State,SDate,ExpandedStatus,DDate,ODate,Period,Perigee,PF,Apogee,AF,Inc,IF,OpOrbit,SATCAT_KEY,DENSITY_SCORE
3.0,GENERATED VIA SPACE-TRACK.ORG API,2026-05-06T14:56:52,18 SPCS,ASC 1,1985-076C,EARTH,TEME,UTC,SGP4,2026-05-06T12:37:51.978720,1.00315246,0.0003419,13.8292,343.6529,72.541,250.8802,0,U,15994,999,11755,0.0,-1.03e-06,0.0,42152.553,1435.475,35788.83,35760.006,PAYLOAD,LARGE,US,1985-08-27,AFETR,,5177376,322302564,0 ASC 1,1 15994U 85076C   26126.52629605 -.00000103  00000-0  00000+0 0  9990,2 15994  13.8292 343.6529 0003419  72.5410 250.8802  1.00315246117559,15994,S15994,-,15994,1985-076C,P,P ---S-,ASC 1,1985 Aug 27,S16007,SESSAP,US,1985 Aug 27 2256?,In Earth orbit,-,2026 May  5 ,1435.475,35760, ,35788, ,13.83, ,GEO/ID,15994,2.0241520953205003
3.0,GENERATED VIA SPACE-TRACK.ORG API,2026-05-06T14:46:56,18 SPCS,CHINASAT 9,2008-028A,EARTH,TEME,UTC,SGP4,2026-05-06T13:52:25.169376,1.00270572,0.0006077,0.6625,85.8187,297.9373,141.1788,0,U,33051,999,6562,0.0,-2.41e-06,0.0,42165.072,1436.114,35812.561,35761.313,PAYLOAD,LARGE,PRC,2008-06-09,XSC,,5177008,322293074,0 CHINASAT 9,1 33051U 08028A   26126.57806909 -.00000241  00000-0  00000+0 0  9998,2 33051   0.6625  85.8187 0006077 297.9373 141.1788  1.00270572 65623,33051,S33051,-,33051,2008-028A,P,P,Zhongxing 9,2008 Jun  9,S33052,CHISAE,CN,2008 Jun  9 1241,In Earth orbit,-,2026 May  5 ,1436.109,35760, ,35812, ,0.66, ,GEO/S,33051,2.0258629799373153
3.0,GENERATED VIA SPACE-TRACK.ORG API,2026-05-06T10:08:52,18 SPCS,NSS 11 (AAP-1),2000-059A,EARTH,TEME,UTC,SGP4,2026-05-06T03:10:38.667936,1.00272916,0.00033258,2.0183,81.8599,333.2835,32.526,0,U,26554,999,4087,0.0,3.3e-07,0.0,42164.415,1436.081,35800.303,35772.257,PAYLOAD,LARGE,SES,2000-10-01,TTMTR,,5176958,322265586,0 NSS 11 (AAP-1),1 26554U 00059A   26126.13239199  .00000033  00000-0  00000-0 0  9996,2 26554   2.0183  81.8599 0003326 333.2835  32.5260  1.00272916 40874,26554,S26554,-,26554,2000-059A,P,P,NSS 11,2000 Oct  1,S26557,SESG/SESSAN,GI,2000 Oct  2 0441,In Earth orbit,-,2026 May  5 ,1436.083,35772, ,35800, ,2.02, ,GEO/S,26554,2.0258897708626336
3.0,GENERATED VIA SPACE-TRACK.ORG API,2026-05-06T14:56:52,18 SPCS,THURAYA 1,2000-066A,EARTH,TEME,UTC,SGP4,2026-05-06T08:20:38.853024,0.9898527,0.0010525,9.7996,22.3868,358.6007,3.4764,0,U,26578,999,9275,0.0,2e-08,0.0,42529.289,1454.762,36195.917,36106.392,PAYLOAD,LARGE,UAE,2000-10-21,SEAL,,5177594,322307852,0 THURAYA 1,1 26578U 00066A   26126.34767191  .00000002  00000-0  00000+0 0  9996,2 26578   9.7996  22.3868 0010525 358.6007   3.4764  0.98985270 92756,26578,S26578,-,26578,2000-066A,P,P,Thuraya 1,2000 Oct 21,S26579,THURY,UAE,2000 Oct 21 0751,In Earth orbit,-,2026 May  4 ,1454.772,36106, ,36196, ,9.8, ,GEO/ID,26578,2.027061045033344
3.0,GENERATED VIA SPACE-TRACK.ORG API,2026-05-06T14:56:52,18 SPCS,EUTE 7A (EUTE W3A),2004-008A,EARTH,TEME,UTC,SGP4,2026-05-06T12:53:34.168992,0.98807259,0.0001483,5.7252,72.411,63.3623,150.0606,0,U,28187,999,8094,0.0,5e-07,0.0,42580.355,1457.383,36208.534,36195.905,PAYLOAD,LARGE,EUTE,2004-03-15,TTMTR,,5177629,322308357,0 EUTE 7A (EUTE W3A),1 28187U 04008A   26126.53720103  .00000050  00000-0  00000+0 0  9990,2 28187   5.7252  72.4110 0001483  63.3623 150.0606  0.98807259 80940,28187,S28187,-,28187,2004-008A,P,P,EUTELSAT 139 WEST A,2004 Mar 15,S28656,EUTSA,F,2004 Mar 16 0816,In Earth orbit,-,2026 May  5 ,1457.388,36196, ,36208, ,5.72, ,GEO/ID,28187,2.028247711545857
3.0,GENERATED VIA SPACE-TRACK.ORG API,2026-05-06T14:56:52,18 SPCS,NATO 4B,1993-076A,EARTH,TEME,UTC,SGP4,2026-05-06T11:17:40.240032,0.9851658,0.0002148,12.9381,1.3681,29.977,71.9112,0,U,22921,999,11820,0.0,1.9e-07,0.0,42664.071,1461.683,36295.1,36276.771,PAYLOAD,LARGE,NATO,1993-12-08,AFETR,,5177490,322304993,0 NATO 4B,1 22921U 93076A   26126.47060463  .00000019  00000-0  00000+0 0  9997,2 22921  12.9381   1.3681 0002148  29.9770  71.9112  0.98516580118205,22921,S22921,-,22921,1993-076A,P,P,NATO 4B,1993 Dec  8,S22923,PARA,UK,1993 Dec  8 0114,In Earth orbit,-,2026 May  5 ,1461.683,36276, ,36295, ,12.94, ,GEO/ID,22921,2.0328626024476564
3.0,GENERATED VIA SPACE-TRACK.ORG API,2026-05-06T10:08:52,18 SPCS,ANGOSAT 1,2017-086A,EARTH,TEME,UTC,SGP4,2026-05-06T04:28:11.631936,0.99383421,0.0017889,7.4762,67.7629,177.4131,22.1033,0,U,43087,999,3031,0.0,-2.38e-06,0.0,42415.626,1448.934,36113.368,35961.614,PAYLOAD,LARGE,AGO,2017-12-26,TTMTR,,5176958,322275224,0 ANGOSAT 1,1 43087U 17086A   26126.18624574 -.00000238  00000-0  00000-0 0  9992,2 43087   7.4762  67.7629 0017889 177.4131  22.1033  0.99383421 30311,43087,S43087,-,43087,2017-086A,P,P,Angosat 1,2017 Dec 26,S43088,GGPEN,AO,2017 Dec 27 0354,In Earth orbit,-,2026 May  4 ,1448.931,35961, ,36113, ,7.47, ,GEO/ID,43087,2.0339989397690084
3.0,GENERATED VIA SPACE-TRACK.ORG API,2026-05-06T14:56:52,18 SPCS,EUTE HOT BIRD 13B (HB 8),2006-032A,EARTH,TEME,UTC,SGP4,2026-05-06T11:35:11.536224,1.00272774,0.0003723,1.5538,82.6767,323.8273,24.7278,0,U,29270,999,4688,0.0,1.64e-06,0.0,42164.455,1436.083,35802.018,35770.622,PAYLOAD,LARGE,EUTE,2006-08-04,TTMTR,,5177648,322309610,0 EUTE HOT BIRD 13B (HB 8),1 29270U 06032A   26126.48277241  .00000164  00000-0  00000+0 0  9993,2 29270   1.5538  82.6767 0003723 323.8273  24.7278  1.00272774 46889,29270,S29270,-,29270,2006-032A,P,P,EUTELSAT 33F,2006 Aug  4,S29254,EUTSA,F,2006 Aug  5 0659,In Earth orbit,-,2026 May  5 ,1436.091,35770, ,35802, ,1.55, ,GEO/S,29270,2.034656972690976
3.0,GENERATED VIA SPACE-TRACK.ORG API,2026-05-06T10:08:52,18 SPCS,LUCH 1,1995-054A,EARTH,TEME,UTC,SGP4,2026-05-06T03:13:47.096832,1.00266902,0.00053383,15.0295,359.5813,138.8057,208.6627,0,U,23680,999,11192,0.0,-1.01e-06,0.0,42166.101,1436.167,35810.476,35765.456,PAYLOAD,LARGE,CIS,1995-10-11,TTMTR,,5176958,322265124,0 LUCH 1,1 23680U 95054A   26126.13457288 -.00000101  00000-0  00000-0 0  9990,2 23680  15.0295 359.5813 0005338 138.8057 208.6627  1.00266902111929,23680,S23680,-,23680,1995-054A,P,P,Luch-1,1995 Oct 11,S23683,VVKOV,RU,1995 Oct 11 2300?,In Earth orbit,-,2026 May  4 ,1436.167,35765, ,35810, ,15.03, ,GEO/I,23680,2.037445112254269
3.0,GENERATED VIA SPACE-TRACK.ORG API,2026-05-06T10:08:52,18 SPCS,CHINASAT 6B,2007-031A,EARTH,TEME,UTC,SGP4,2026-05-06T06:54:09.052992,0.99062488,0.00081314,2.3342,79.8967,263.7389,112.1783,0,U,31800,999,6898,0.0,-2.43e-06,0.0,42507.186,1453.628,36163.615,36094.486,PAYLOAD,LARGE,PRC,2007-07-05,XSC,,5176958,322268922,0 CHINASAT 6B,1 31800U 07031A   26126.28760478 -.00000243  00000-0  00000-0 0  9992,2 31800   2.3342  79.8967 0008131 263.7389 112.1783  0.99062488 68985,31800,S31800,-,31800,2007-031A,P,P,Zhongxing 6B,2007 Jul  5,S31801,CHISAE,CN,2007 Jul  5 1234,In Earth orbit,-,2026 May  5 ,1453.622,36094, ,36163, ,2.33, ,GEO/D,31800,2.0391277701565125
3.0,GENERATED VIA SPACE-TRACK.ORG API,2026-05-06T14:46:56,18 SPCS,GOES 3,1978-062A,EARTH,TEME,UTC,SGP4,2026-05-06T09:29:16.302912,0.99363072,0.0001356,6.9977,299.6468,12.0889,6.8751,0,U,10953,999,12812,0.0,-2.47e-06,0.0,42421.417,1449.231,36049.034,36037.529,PAYLOAD,LARGE,US,1978-06-16,AFETR,,5177205,322298423,0 GOES 3,1 10953U 78062A   26126.39532758 -.00000247  00000-0  00000+0 0  9993,2 10953   6.9977 299.6468 0001356  12.0889   6.8751  0.99363072128125,10953,S10953,-,10953,1978-062A,P,P,GOES 3,1978 Jun 16,S10955,NOAA,US,1978 Jun 16 1114,In Earth orbit,-,2026 May  5 ,1449.223,36037, ,36049, ,7.0, ,GEO/ID,10953,2.03926505069243
3.0,GENERATED VIA SPACE-TRACK.ORG API,2026-05-06T10:08:52,18 SPCS,RADUGA 1-5,2000-049A,EARTH,TEME,UTC,SGP4,2026-05-06T03:18:46.617984,1.00218631,0.00018979,13.9439,8.382,39.7753,318.7627,0,U,26477,999,9399,0.0,-2.57e-06,0.0,42179.64,1436.859,35809.51,35793.499,PAYLOAD,LARGE,CIS,2000-08-28,TTMTR,,5176958,322266061,0 RADUGA 1-5,1 26477U 00049A   26126.13803956 -.00000257  00000-0  00000-0 0  9996,2 26477  13.9439   8.3820 0001898  39.7753 318.7627  1.00218631 93994,26477,S26477,-,26477,2000-049A,P,P,Raduga-1,2000 Aug 28,S26480,VVKOV,RU,2000 Aug 29 0249,In Earth orbit,-,2026 May  5 ,1436.854,35793, ,35809, ,13.94, ,GEO/ID,26477,2.0396856721173195
3.0,GENERATED VIA SPACE-TRACK.ORG API,2026-05-06T14:46:56,18 SPCS,OTS 2,1978-044A,EARTH,TEME,UTC,SGP4,2026-05-06T11:07:29.193312,0.9913834,0.0009798,8.0962,304.2686,4.3896,18.8502,0,U,10855,999,20358,0.0,-1.7e-06,0.0,42485.501,1452.516,36148.994,36065.739,PAYLOAD,MEDIUM,ESA,1978-05-11,AFETR,,5177202,322298389,0 OTS 2,1 10855U 78044A   26126.46353233 -.00000170  00000-0  00000+0 0  9996,2 10855   8.0962 304.2686 0009798   4.3896  18.8502  0.99138340203587,10855,S10855,-,10855,1978-044A,P,P,OTS 2,1978 May 11,S10857,ESA,I-ESA,1978 May 11 2323,In Earth orbit,-,2026 May  4 ,1452.506,36065, ,36149, ,8.1, ,GEO/ID,10855,2.0401716835543025
3.0,GENERATED VIA SPACE-TRACK.ORG API,2026-05-06T15:06:46,18 SPCS,EUTE 8A (SINOSAT 3),2007-021A,EARTH,TEME,UTC,SGP4,2026-05-06T10:44:01.440960,0.98335361,0.0013736,9.4759,48.5218,101.9196,88.7339,0,U,31577,999,4102,0.0,-5.2e-07,0.0,42716.471,1464.377,36397.011,36279.66,PAYLOAD,LARGE,EUTE,2007-05-31,XSC,,5177771,322311907,0 EUTE 8A (SINOSAT 3),1 31577U 07021A   26126.44723890 -.00000052  00000-0  00000+0 0  9994,2 31577   9.4759  48.5218 0013736 101.9196  88.7339  0.98335361 41027,31577,S31577,-,31577,2007-021A,P,P,EUTELSAT 8 WEST D,2007 May 31,S31578,EUTSA,F,2007 May 31 1632,In Earth orbit,-,2026 May  4 ,1464.387,36280, ,36397, ,9.47, ,GEO/ID,31577,2.040593881660519
